LANDSAT 9               
1 49260U 21088A   23256.12834548  .00000711  00000+0  16791-3 0  9998
2 49260  98.2230 324.9397 0001377  95.6257 264.5099 14.57106358104196
